{
    "links": {
        "self": "http://www.neowsapp.com/rest/v1/neo/3791241?api_key=iIulBulltgU6a56xZRHN4H3l9WmuAYTsLGpBGhQ2"
    },
    "id": "3791241",
    "neo_reference_id": "3791241",
    "name": "(2017 XD1)",
    "designation": "2017 XD1",
    "nasa_jpl_url": "http://ssd.jpl.nasa.gov/sbdb.cgi?sstr=3791241",
    "absolute_magnitude_h": 25.3,
    "estimated_diameter": {
        "kilometers": {
            "estimated_diameter_min": 0.0231502122,
            "estimated_diameter_max": 0.0517654482
        },
        "meters": {
            "estimated_diameter_min": 23.150212221,
            "estimated_diameter_max": 51.7654482198
        },
        "miles": {
            "estimated_diameter_min": 0.0143848705,
            "estimated_diameter_max": 0.0321655483
        },
        "feet": {
            "estimated_diameter_min": 75.9521422633,
            "estimated_diameter_max": 169.8341531374
        }
    },
    "is_potentially_hazardous_asteroid": false,
    "close_approach_data": [
        {
            "close_approach_date": "1917-12-15",
            "close_approach_date_full": "1917-Dec-15 03:50",
            "epoch_date_close_approach": -1642450200000,
            "relative_velocity": {
                "kilometers_per_second": "15.8267683373",
                "kilometers_per_hour": "56976.3660141792",
                "miles_per_hour": "35402.8980936437"
            },
            "miss_distance": {
                "astronomical": "0.3073994226",
                "lunar": "119.5783753914",
                "kilometers": "45986298.860189862",
                "miles": "28574561.0917176156"
            },
            "orbiting_body": "Earth"
        },
        {
            "close_approach_date": "2017-11-27",
            "close_approach_date_full": "2017-Nov-27 23:39",
            "epoch_date_close_approach": 1511825940000,
            "relative_velocity": {
                "kilometers_per_second": "8.3009530609",
                "kilometers_per_hour": "29883.4310191941",
                "miles_per_hour": "18568.4019018987"
            },
            "miss_distance": {
                "astronomical": "0.0514810435",
                "lunar": "20.0261259215",
                "kilometers": "7701454.452977345",
                "miles": "4785461.892263561"
            },
            "orbiting_body": "Earth"
        },
        {
            "close_approach_date": "2076-10-08",
            "close_approach_date_full": "2076-Oct-08 04:18",
            "epoch_date_close_approach": 3369356280000,
            "relative_velocity": {
                "kilometers_per_second": "6.1284825043",
                "kilometers_per_hour": "22062.5370155177",
                "miles_per_hour": "13708.8025138921"
            },
            "miss_distance": {
                "astronomical": "0.1189418819",
                "lunar": "46.2683920591",
                "kilometers": "17793452.186031553",
                "miles": "11056338.4991713114"
            },
            "orbiting_body": "Earth"
        },
        {
            "close_approach_date": "2085-08-14",
            "close_approach_date_full": "2085-Aug-14 08:21",
            "epoch_date_close_approach": 3648615660000,
            "relative_velocity": {
                "kilometers_per_second": "18.0400437358",
                "kilometers_per_hour": "64944.1574489574",
                "miles_per_hour": "40353.7738326591"
            },
            "miss_distance": {
                "astronomical": "0.4265792526",
                "lunar": "165.9393292614",
                "kilometers": "63815347.575151962",
                "miles": "39653018.2483105956"
            },
            "orbiting_body": "Earth"
        },
        {
            "close_approach_date": "2176-08-30",
            "close_approach_date_full": "2176-Aug-30 07:41",
            "epoch_date_close_approach": 6521672460000,
            "relative_velocity": {
                "kilometers_per_second": "11.5374374338",
                "kilometers_per_hour": "41534.7747617959",
                "miles_per_hour": "25808.0937957392"
            },
            "miss_distance": {
                "astronomical": "0.2310705584",
                "lunar": "89.8864472176",
                "kilometers": "34567663.356350608",
                "miles": "21479349.9989420704"
            },
            "orbiting_body": "Earth"
        }
    ],
    "orbital_data": {
        "orbit_id": "3",
        "orbit_determination_date": "2017-12-22 06:29:40",
        "first_observation_date": "2017-12-08",
        "last_observation_date": "2017-12-21",
        "data_arc_in_days": 13,
        "observations_used": 27,
        "orbit_uncertainty": "8",
        "minimum_orbit_intersection": ".0368029",
        "jupiter_tisserand_invariant": "4.526",
        "epoch_osculation": "2458096.5",
        "eccentricity": ".3405482682693113",
        "semi_major_axis": "1.472406801547464",
        "inclination": "7.517781517276078",
        "ascending_node_longitude": "253.7389435401267",
        "orbital_period": "652.5896013530095",
        "perihelion_distance": ".9709812150925193",
        "perihelion_argument": "135.1735165951326",
        "aphelion_distance": "1.973832388002408",
        "perihelion_time": "2458055.462718214440",
        "mean_anomaly": "22.63815024354045",
        "mean_motion": ".5516483855299172",
        "equinox": "J2000",
        "orbit_class": {
            "orbit_class_type": "APO",
            "orbit_class_description": "Near-Earth asteroid orbits which cross the Earth’s orbit similar to that of 1862 Apollo",
            "orbit_class_range": "a (semi-major axis) > 1.0 AU; q (perihelion) < 1.017 AU"
        }
    },
    "is_sentry_object": false
}